CCSDS_OMM_VERS = 2.0
CREATION_DATE  = 
ORIGINATOR     = 

OBJECT_NAME    = H-2A R/B
OBJECT_ID      = 2012-025E
CENTER_NAME    = EARTH
REF_FRAME      = TEME
TIME_SYSTEM    = UTC
MEAN_ELEMENT_THEORY = SGP/SGP4

EPOCH          = 2025-11-04T19:19:33.974112
MEAN_MOTION    = 14.94026765
ECCENTRICITY   = .0045725
INCLINATION    = 98.4529
RA_OF_ASC_NODE = 261.1350
ARG_OF_PERICENTER = 3.0597
MEAN_ANOMALY   = 357.0892

EPHEMERIS_TYPE = 0
CLASSIFICATION_TYPE = U
NORAD_CAT_ID   = 38341
ELEMENT_SET_NO = 999
REV_AT_EPOCH   = 72956
BSTAR          = .39672E-3
MEAN_MOTION_DOT = .4251E-4
MEAN_MOTION_DDOT = 0

CCSDS_OMM_VERS = 2.0
CREATION_DATE  = 
ORIGINATOR     = 

OBJECT_NAME    = SHIJIAN-16 (SJ-16)
OBJECT_ID      = 2013-057A
CENTER_NAME    = EARTH
REF_FRAME      = TEME
TIME_SYSTEM    = UTC
MEAN_ELEMENT_THEORY = SGP/SGP4

EPOCH          = 2025-11-04T20:21:17.684640
MEAN_MOTION    = 14.91776221
ECCENTRICITY   = .0016122
INCLINATION    = 74.9739
RA_OF_ASC_NODE = 61.3364
ARG_OF_PERICENTER = 52.9522
MEAN_ANOMALY   = 307.3138

EPHEMERIS_TYPE = 0
CLASSIFICATION_TYPE = U
NORAD_CAT_ID   = 39358
ELEMENT_SET_NO = 999
REV_AT_EPOCH   = 65288
BSTAR          = .23104E-3
MEAN_MOTION_DOT = .2306E-4
MEAN_MOTION_DDOT = 0

CCSDS_OMM_VERS = 2.0
CREATION_DATE  = 
ORIGINATOR     = 

OBJECT_NAME    = SL-4 R/B
OBJECT_ID      = 2014-021B
CENTER_NAME    = EARTH
REF_FRAME      = TEME
TIME_SYSTEM    = UTC
MEAN_ELEMENT_THEORY = SGP/SGP4

EPOCH          = 2025-11-04T19:32:37.438080
MEAN_MOTION    = 15.35216712
ECCENTRICITY   = .0104832
INCLINATION    = 51.6078
RA_OF_ASC_NODE = 224.7176
ARG_OF_PERICENTER = 9.6613
MEAN_ANOMALY   = 350.6352

EPHEMERIS_TYPE = 0
CLASSIFICATION_TYPE = U
NORAD_CAT_ID   = 39679
ELEMENT_SET_NO = 999
REV_AT_EPOCH   = 63706
BSTAR          = .40433E-3
MEAN_MOTION_DOT = .16429E-3
MEAN_MOTION_DDOT = 0

CCSDS_OMM_VERS = 2.0
CREATION_DATE  = 
ORIGINATOR     = 

OBJECT_NAME    = ALOS-2
OBJECT_ID      = 2014-029A
CENTER_NAME    = EARTH
REF_FRAME      = TEME
TIME_SYSTEM    = UTC
MEAN_ELEMENT_THEORY = SGP/SGP4

EPOCH          = 2025-11-04T20:50:48.456096
MEAN_MOTION    = 14.79467554
ECCENTRICITY   = .0001228
INCLINATION    = 97.9239
RA_OF_ASC_NODE = 44.2533
ARG_OF_PERICENTER = 101.4593
MEAN_ANOMALY   = 258.6756

EPHEMERIS_TYPE = 0
CLASSIFICATION_TYPE = U
NORAD_CAT_ID   = 39766
ELEMENT_SET_NO = 999
REV_AT_EPOCH   = 61841
BSTAR          = .28654E-3
MEAN_MOTION_DOT = .2089E-4
MEAN_MOTION_DDOT = 0

CCSDS_OMM_VERS = 2.0
CREATION_DATE  = 
ORIGINATOR     = 

OBJECT_NAME    = YAOGAN-29
OBJECT_ID      = 2015-069A
CENTER_NAME    = EARTH
REF_FRAME      = TEME
TIME_SYSTEM    = UTC
MEAN_ELEMENT_THEORY = SGP/SGP4

EPOCH          = 2025-11-04T21:31:05.151360
MEAN_MOTION    = 14.82816994
ECCENTRICITY   = .0002551
INCLINATION    = 98.0261
RA_OF_ASC_NODE = 331.9392
ARG_OF_PERICENTER = 61.8454
MEAN_ANOMALY   = 298.3017

EPHEMERIS_TYPE = 0
CLASSIFICATION_TYPE = U
NORAD_CAT_ID   = 41038
ELEMENT_SET_NO = 999
REV_AT_EPOCH   = 53738
BSTAR          = .72033E-4
MEAN_MOTION_DOT = .528E-5
MEAN_MOTION_DDOT = 0

CCSDS_OMM_VERS = 2.0
CREATION_DATE  = 
ORIGINATOR     = 

OBJECT_NAME    = ASTRO-H (HITOMI)
OBJECT_ID      = 2016-012A
CENTER_NAME    = EARTH
REF_FRAME      = TEME
TIME_SYSTEM    = UTC
MEAN_ELEMENT_THEORY = SGP/SGP4

EPOCH          = 2025-11-04T17:26:05.921088
MEAN_MOTION    = 15.08999274
ECCENTRICITY   = .0009883
INCLINATION    = 30.9992
RA_OF_ASC_NODE = 82.3635
ARG_OF_PERICENTER = 155.6789
MEAN_ANOMALY   = 204.4316

EPHEMERIS_TYPE = 0
CLASSIFICATION_TYPE = U
NORAD_CAT_ID   = 41337
ELEMENT_SET_NO = 999
REV_AT_EPOCH   = 53333
BSTAR          = .21035E-3
MEAN_MOTION_DOT = .3504E-4
MEAN_MOTION_DDOT = 0

CCSDS_OMM_VERS = 2.0
CREATION_DATE  = 
ORIGINATOR     = 

OBJECT_NAME    = HXMT (HUIYAN)
OBJECT_ID      = 2017-034A
CENTER_NAME    = EARTH
REF_FRAME      = TEME
TIME_SYSTEM    = UTC
MEAN_ELEMENT_THEORY = SGP/SGP4

EPOCH          = 2025-11-04T20:08:41.004672
MEAN_MOTION    = 15.15614728
ECCENTRICITY   = .0032665
INCLINATION    = 43.0153
RA_OF_ASC_NODE = 349.8557
ARG_OF_PERICENTER = 168.2335
MEAN_ANOMALY   = 191.9282

EPHEMERIS_TYPE = 0
CLASSIFICATION_TYPE = U
NORAD_CAT_ID   = 42758
ELEMENT_SET_NO = 999
REV_AT_EPOCH   = 46358
BSTAR          = .31398E-3
MEAN_MOTION_DOT = .5919E-4
MEAN_MOTION_DDOT = 0

CCSDS_OMM_VERS = 2.0
CREATION_DATE  = 
ORIGINATOR     = 

OBJECT_NAME    = CZ-2C R/B
OBJECT_ID      = 2018-054D
CENTER_NAME    = EARTH
REF_FRAME      = TEME
TIME_SYSTEM    = UTC
MEAN_ELEMENT_THEORY = SGP/SGP4

EPOCH          = 2025-11-04T15:25:58.118592
MEAN_MOTION    = 15.65926967
ECCENTRICITY   = .0024723
INCLINATION    = 35.1352
RA_OF_ASC_NODE = 77.6247
ARG_OF_PERICENTER = 134.3255
MEAN_ANOMALY   = 225.9507

EPHEMERIS_TYPE = 0
CLASSIFICATION_TYPE = U
NORAD_CAT_ID   = 43521
ELEMENT_SET_NO = 999
REV_AT_EPOCH   = 40906
BSTAR          = .7439E-3
MEAN_MOTION_DOT = .80507E-3
MEAN_MOTION_DDOT = 0

CCSDS_OMM_VERS = 2.0
CREATION_DATE  = 
ORIGINATOR     = 

OBJECT_NAME    = SAOCOM 1A
OBJECT_ID      = 2018-076A
CENTER_NAME    = EARTH
REF_FRAME      = TEME
TIME_SYSTEM    = UTC
MEAN_ELEMENT_THEORY = SGP/SGP4

EPOCH          = 2025-11-04T19:09:51.132672
MEAN_MOTION    = 14.82147090
ECCENTRICITY   = .0001353
INCLINATION    = 97.8871
RA_OF_ASC_NODE = 133.7698
ARG_OF_PERICENTER = 90.7191
MEAN_ANOMALY   = 269.4177

EPHEMERIS_TYPE = 0
CLASSIFICATION_TYPE = U
NORAD_CAT_ID   = 43641
ELEMENT_SET_NO = 999
REV_AT_EPOCH   = 38286
BSTAR          = .73993E-4
MEAN_MOTION_DOT = .537E-5
MEAN_MOTION_DDOT = 0

CCSDS_OMM_VERS = 2.0
CREATION_DATE  = 
ORIGINATOR     = 

OBJECT_NAME    = H-2A R/B
OBJECT_ID      = 2018-084L
CENTER_NAME    = EARTH
REF_FRAME      = TEME
TIME_SYSTEM    = UTC
MEAN_ELEMENT_THEORY = SGP/SGP4

EPOCH          = 2025-11-04T18:56:20.101056
MEAN_MOTION    = 15.35492279
ECCENTRICITY   = .0029361
INCLINATION    = 98.8802
RA_OF_ASC_NODE = 135.0595
ARG_OF_PERICENTER = 95.0249
MEAN_ANOMALY   = 265.4342

EPHEMERIS_TYPE = 0
CLASSIFICATION_TYPE = U
NORAD_CAT_ID   = 43682
ELEMENT_SET_NO = 999
REV_AT_EPOCH   = 38657
BSTAR          = .47866E-3
MEAN_MOTION_DOT = .16654E-3
MEAN_MOTION_DDOT = 0

CCSDS_OMM_VERS = 2.0
CREATION_DATE  = 
ORIGINATOR     = 

OBJECT_NAME    = SAOCOM 1B
OBJECT_ID      = 2020-059A
CENTER_NAME    = EARTH
REF_FRAME      = TEME
TIME_SYSTEM    = UTC
MEAN_ELEMENT_THEORY = SGP/SGP4

EPOCH          = 2025-11-04T19:54:52.126272
MEAN_MOTION    = 14.82149680
ECCENTRICITY   = .000146
INCLINATION    = 97.8859
RA_OF_ASC_NODE = 132.9034
ARG_OF_PERICENTER = 89.0115
MEAN_ANOMALY   = 271.1266

EPHEMERIS_TYPE = 0
CLASSIFICATION_TYPE = U
NORAD_CAT_ID   = 46265
ELEMENT_SET_NO = 999
REV_AT_EPOCH   = 28025
BSTAR          = .76644E-4
MEAN_MOTION_DOT = .558E-5
MEAN_MOTION_DDOT = 0

CCSDS_OMM_VERS = 2.0
CREATION_DATE  = 
ORIGINATOR     = 

OBJECT_NAME    = CSS (TIANHE)
OBJECT_ID      = 2021-035A
CENTER_NAME    = EARTH
REF_FRAME      = TEME
TIME_SYSTEM    = UTC
MEAN_ELEMENT_THEORY = SGP/SGP4

EPOCH          = 2025-11-04T20:44:22.261056
MEAN_MOTION    = 15.60384983
ECCENTRICITY   = .0006231
INCLINATION    = 41.4669
RA_OF_ASC_NODE = 246.7216
ARG_OF_PERICENTER = 323.7502
MEAN_ANOMALY   = 36.2914

EPHEMERIS_TYPE = 0
CLASSIFICATION_TYPE = U
NORAD_CAT_ID   = 48274
ELEMENT_SET_NO = 999
REV_AT_EPOCH   = 25811
BSTAR          = .34062E-3
MEAN_MOTION_DOT = .28539E-3
MEAN_MOTION_DDOT = 0

