H-2A R/B                
1 38341U 12025E   25308.80525433  .00004251  00000+0  39672-3 0  9998
2 38341  98.4529 261.1350 0045725   3.0597 357.0892 14.94026765729560
SHIJIAN-16 (SJ-16)      
1 39358U 13057A   25308.84812135  .00002306  00000+0  23104-3 0  9997
2 39358  74.9739  61.3364 0016122  52.9522 307.3138 14.91776221652883
SL-4 R/B                
1 39679U 14021B   25308.81432220  .00016429  00000+0  40433-3 0  9990
2 39679  51.6078 224.7176 0104832   9.6613 350.6352 15.35216712637064
ALOS-2                  
1 39766U 14029A   25308.86861639  .00002089  00000+0  28654-3 0  9998
2 39766  97.9239  44.2533 0001228 101.4593 258.6756 14.79467554618410
YAOGAN-29               
1 41038U 15069A   25308.89658740  .00000528  00000+0  72033-4 0  9995
2 41038  98.0261 331.9392 0002551  61.8454 298.3017 14.82816994537383
ASTRO-H (HITOMI)        
1 41337U 16012A   25308.72645742  .00003504  00000+0  21035-3 0  9998
2 41337  30.9992  82.3635 0009883 155.6789 204.4316 15.08999274533339
HXMT (HUIYAN)           
1 42758U 17034A   25308.83936348  .00005919  00000+0  31398-3 0  9993
2 42758  43.0153 349.8557 0032665 168.2335 191.9282 15.15614728463583
CZ-2C R/B               
1 43521U 18054D   25308.64303378  .00080507  00000+0  74390-3 0  9990
2 43521  35.1352  77.6247 0024723 134.3255 225.9507 15.65926967409065
SAOCOM 1A               
1 43641U 18076A   25308.79850848  .00000537  00000+0  73993-4 0  9996
2 43641  97.8871 133.7698 0001353  90.7191 269.4177 14.82147090382865
H-2A R/B                
1 43682U 18084L   25308.78912154  .00016654  00000+0  47866-3 0  9994
2 43682  98.8802 135.0595 0029361  95.0249 265.4342 15.35492279386570
SAOCOM 1B               
1 46265U 20059A   25308.82976998  .00000558  00000+0  76644-4 0  9993
2 46265  97.8859 132.9034 0001460  89.0115 271.1266 14.82149680280253
CSS (TIANHE)            
1 48274U 21035A   25308.86414654  .00028539  00000+0  34062-3 0  9996
2 48274  41.4669 246.7216 0006231 323.7502  36.2914 15.60384983258118
